#cP2016  7 17  0  0  0.00000000      96 ORBIT IGb08 HLM  IGS
## 1906      0.00000000   900.00000000 57586 0.0000000000000
+   32   G01G02G03G04G05G06G07G08G09G10G11G12G13G14G15G16G17
+        G18G19G20G21G22G23G24G25G26G27G28G29G30G31G32  0  0
+          0  0  0  0  0  0  0  0  0  0  0  0  0  0  0  0  0
+          0  0  0  0  0  0  0  0  0  0  0  0  0  0  0  0  0
+          0  0  0  0  0  0  0  0  0  0  0  0  0  0  0  0  0
++         2  2  2  0  2  2  2  2  1  2  2  2  2  2  2  2  2
++         2  2  2  2  2  2  2  2  2  2  2  2  2  2  2  0  0
++         0  0  0  0  0  0  0  0  0  0  0  0  0  0  0  0  0
++         0  0  0  0  0  0  0  0  0  0  0  0  0  0  0  0  0
++         0  0  0  0  0  0  0  0  0  0  0  0  0  0  0  0  0
%c G  cc GPS ccc cccc cccc cccc cccc ccccc ccccc ccccc ccccc
%c cc cc ccc ccc cccc cccc cccc cccc ccccc ccccc ccccc ccccc
%f  1.2500000  1.025000000  0.00000000000  0.000000000000000
%f  0.0000000  0.000000000  0.00000000000  0.000000000000000
%i    0    0    0    0      0      0      0      0         0
%i    0    0    0    0      0      0      0      0         0
/* FINAL ORBIT COMBINATION FROM WEIGHTED AVERAGE OF:        
/* cod emr esa gfz grg jpl mit ngs sio                      
/* REFERENCED TO IGS TIME (IGST) AND TO WEIGHTED MEAN POLE: 
/* PCV:IGS08_1904 OL/AL:FES2004  NONE     Y  ORB:CMB CLK:CMB
*  2016  7 17 15  0  0.00000000
PG01  12703.292889 -21722.419245  -8190.463318     27.221918  5  7  2 109       
PG02 -20635.928163  11766.789660 -11023.271593    575.481430  5  5  6  92       
PG03   4742.083756 -14536.609129 -21711.475906    -73.723808  5  5    116       
PG04  25388.022162   8014.495175  -2227.320279 999999.999999
PG05 -22556.249349   4869.582444  13254.140021   -104.789093  8  8  4 119       
PG06 -17192.780269  -1978.017609 -20139.232904    219.860478  4  6  4 110       
PG07  -1686.907157 -17749.046350  19694.391250    441.365284  5  6  2 116       
PG08   8277.178593 -16987.877713  18694.862764    -43.101792  2  2  1 110       
PG09  -6528.147939 -25652.348915  -2065.105418    169.195233  3  4  3  56       
PG10  23025.167679  10816.910862   7783.458273    -67.165967  4  4  4  70       
PG11  10364.116814 -24399.652024    851.333623   -656.210686  5  4    115       
PG12  -8081.460791  12696.838926 -21997.987396    385.494668  7  8  6  93       
PG13 -13213.047319   8570.873311  21278.479142    -31.742510  2  2  4 100       
PG14  15591.024211  10416.059849 -18614.759382    -25.056597  6  5  4 108       
PG15  -6638.795093  18842.407084  17203.511346   -319.744641  8  7  4 100       
PG16  22677.376013  -2496.793852  13814.959997     -4.214857  8  8  7  92       
PG17 -14120.018397 -17649.203469 -13767.992451   -203.896151  5  3  5  82       
PG18  13427.393265  15848.696338  17234.815241    537.436056  6  5  7  90       
PG19 -15576.066921  -8149.345797 -20050.977462   -524.894379  6  7  5  86       
PG20  -8064.333722  14499.886637  20597.381852    424.775707  4  3  2 111       
PG21   5501.776521  16679.947181  20621.747735   -528.549969  3  3  4 140       
PG22  13864.633232 -11974.414547 -19028.234303    294.590809  5  6  4 106       
PG23    366.441985 -24136.080080 -10354.461426   -182.518369  7  8  6 112       
PG24 -14809.480554  21479.299810  -4426.295213    -20.287556  6  5  3 107       
PG25   5936.043371  15716.481419 -20747.982483   -210.103109  5  3  3 110       
PG26  26115.000870   2872.067479   4074.953624   -425.578084  4  6  5  84       
PG27  14118.625625  -4951.304853  21902.343437    115.761642  3  5  4 113       
PG28 -20855.105361 -13483.251529  10097.821728    537.849286  5  5  5  84       
PG29   3168.672073  25980.001870  -4639.909581    655.319521  5  7  5  90       
PG30 -10098.316811 -11641.866221  21624.923929    140.210845  4  2  5 111       
PG31  19189.614559  -1482.579765 -18361.042777    258.393692  5  3  4 105       
PG32  15628.671517  15790.787679 -14553.427306    -51.098297  5  5  4 121       
*  2016  7 17 15 15  0.00000000
PG01  13401.848605 -22139.841933  -5456.663687     27.223065  5  7  2 113       
PG02 -19934.001242  10438.499532 -13352.523781    575.477556  5  6  6  84       
PG03   7157.179149 -14030.798269 -21379.790665    -73.726544  5  5    116       
PG04  24971.086853   8094.659399  -5072.342874 999999.999999
PG05 -23880.401570   4388.033146  10926.416507   -104.786410  8  9  5 117       
PG06 -15705.717914  -3810.315220 -21068.244111    219.865206  4  6  5 113       
PG07   -132.057268 -19248.630708  18259.583823    441.362961  5  7  3 109       
PG08   9114.678815 -14943.815373  20011.555836    -43.103575  3  3  2 117       
PG09  -6140.884551 -25368.124580  -4872.632865    169.201751  4  4  2  41       
PG10  21965.743529  10847.848087  10371.316527    -67.172411  4  4  4  81       
PG11  10667.997361 -23957.321279   3561.478113   -656.212319  5  4    115       
PG12 -10442.196176  12055.143477 -21333.154325    385.495612  7  9  6  87       
PG13 -13778.496937   6152.334869  21741.540426    -31.744715  1  1  4 103       
PG14  15977.008565  12463.757916 -16995.497299    -25.058251  6  5  3 124       
PG15  -7624.851366  16979.680620  18691.921562   -319.746127  7  7  4  91       
PG16  24039.002330  -2004.205708  11437.907223     -4.212925  8  8  7  88       
PG17 -14373.101286 -19117.374175 -11416.537314   -203.896036  5  4  5  45       
PG18  11460.598734  15704.308138  18746.792849    537.439571  5  5  7 102       
PG19 -15970.563303 -10290.544210 -18660.852493   -524.894219  5  6  5  58       
PG20 -10392.488234  14145.360727  19794.392455    424.777775  5  5  2 110       
PG21   4032.131199  18273.709372  19520.890788   -528.551379  2  3  4 138       
PG22  15963.108639 -11457.681117 -17681.221940    294.582519  6  6  4 106       
PG23   1083.560885 -22936.633735 -12751.348043   -182.519757  7  8  5 120       
PG24 -15259.009445  21550.370264  -1610.126667    -20.288474  6  5  3 106       
PG25   3586.012084  15301.436862 -21569.459791   -210.109362  5  4  4 103       
PG26  26367.985532   3175.388570   1244.490429   -425.586938  5  6  5  78       
PG27  14936.363195  -2584.142987  21782.106591    115.765718  3  6  4 111       
PG28 -19655.419395 -13287.977460  12605.153524    537.851785  4  5  5  91       
PG29   2793.963522  25370.823078  -7416.638816    655.318933  5  7  4  95       
PG30  -8337.165782 -13366.038476  21367.418416    140.212909  4  3  6 114       
PG31  17769.037202    182.101244 -19755.754277    258.392080  5  3  3 102       
PG32  15943.312772  17311.275808 -12314.596107    -51.108018  6  6  4 123       
*  2016  7 17 15 30  0.00000000
PG01  13883.354848 -22343.733103  -2627.772767     27.224224  4  7  2 119       
PG02 -19149.030713   8869.299471 -15441.433325    575.473865  4  6  6  72       
PG03   9537.397444 -13658.662440 -20680.026744    -73.729218  4  6  1 129       
PG04  24248.423512   8147.788587  -7831.783621 999999.999999
PG05 -24955.438147   4007.978140   8412.007961   -104.784134  8  9  5 118       
PG06 -14265.679102  -5785.684495 -21634.441519    219.869885  3  6  4 128       
PG07   1231.182177 -20690.099524  16509.577350    441.360578  5  7  3 109       
PG08  10108.255993 -12827.698989  20984.935162    -43.105109  3  3  3 111       
PG09  -5619.093327 -24815.208210  -7596.214785    169.208250  4  4     53       
PG10  20629.398686  10896.888312  12781.540824    -67.178925  4  4  4  65       
PG11  10908.373692 -23236.581938   6209.618909   -656.213195  4  5    121       
PG12 -12743.800674  11565.824816 -20304.363032    385.496024  7  9  6 106       
PG13 -14481.017522   3736.472406  21826.462854    -31.746746  2  2  5 101       
PG14  16407.776933  14293.921634 -15079.999486    -25.060139  5  6  2 115       
PG15  -8760.142373  15030.805501  19852.024452   -319.747433  7  7  3  98       
PG16  25151.869048  -1648.850652   8866.981544     -4.211076  7  8  6 103       
PG17 -14613.196854 -20303.842879  -8867.291399   -203.895997  5  4  5  80       
PG18   9341.468370  15638.653526  19951.908093    537.443080  5  5  7  99       
PG19 -16429.890816 -12243.960320 -16952.157345   -524.893972  5  5  5  75       
PG20 -12623.309051  13904.729154  18646.756129    424.779399  6  6  2 105       
PG21   2721.102076  19830.465285  18101.718829   -528.551906  3  4  4 136       
PG22  17911.640487 -11055.957723 -16025.548102    294.574221  7  7  4 114       
PG23   1957.203250 -21531.755789 -14921.328425   -182.520938  7  8  5 127       
PG24 -15514.290601  21384.653055   1234.078564    -20.289448  5  5  3 107       
PG25   1143.909398  15007.324214 -22025.077473   -210.115578  5  4  3 106       
PG26  26317.718597   3424.493067  -1607.326863   -425.595832  5  6  5  85       
PG27  15866.194604   -298.310776  21286.110236    115.769722  4  6  5 112       
PG28 -18188.055196 -13103.929005  14902.899837    537.854002  4  5  5  97       
PG29   2285.476145  24492.615093 -10066.002655    655.318504  6  8  4  99       
PG30  -6697.984517 -15140.572952  20741.691515    140.214994  3  4  6 114       
PG31  16350.108374   2031.027514 -20810.951595    258.390438  4  3  3 106       
PG32  16234.402832  18568.184670  -9863.862098    -51.117741  6  6  5 122       
EOF
